[Satellite]
VERSION=1.1
NAME=AISat 1
NICKNAME=AISat 1
TLE1=1 44104U 19018AC  22335.19409616  .00009602  00000-0  24632-3 0  9990
TLE2=2 44104  97.3872  59.1854 0047279 254.3907 105.2117 15.38392552205201
STATUS=0
